start=new Date('2022-02-26T00:00:00.000Z').valueOf();
sats=[{"REV_AT_EPOCH":"11498","COUNTRY_CODE":"US","EPHEMERIS_TYPE":"0","MEAN_MOTION":"15.76764862","BSTAR":"0.00034773000000","MEAN_ELEMENT_THEORY":"SGP4","OBJECT_TYPE":"PAYLOAD","CENTER_NAME":"EARTH","GP_ID":"197030132","OBJECT_ID":"2020-012AY","EPOCH":"2022-02-25T14:30:27.058176","SEMIMAJOR_AXIS":"6717.751","RCS_SIZE":"LARGE","INCLINATION":"53.0473","MEAN_MOTION_DOT":"0.00056757","MEAN_MOTION_DDOT":"0.0000000000000","APOAPSIS":"342.422","FILE":"3323947","ELEMENT_SET_NO":"999","OBJECT_NAME":"STARLINK-1214","ECCENTRICITY":"0.00041770","REF_FRAME":"TEME","LAUNCH_DATE":"2020-02-17","RA_OF_ASC_NODE":"16.0415","NORAD_CAT_ID":"45224","PERIAPSIS":"336.810","TLE_LINE2":"2 45224  53.0473  16.0415 0004177   8.5183 351.5907 15.76764862114987","TLE_LINE1":"1 45224U 20012AY  22056.60447984  .00056757  00000-0  34773-3 0  9996","TIME_SYSTEM":"UTC","DECAY_DATE":null,"MEAN_ANOMALY":"351.5907","ARG_OF_PERICENTER":"8.5183","PERIOD":"91.326","CLASSIFICATION_TYPE":"U","SITE":"AFETR"},{"PERIOD":"95.592","SITE":"AFETR","CLASSIFICATION_TYPE":"U","DECAY_DATE":null,"ARG_OF_PERICENTER":"49.3575","MEAN_ANOMALY":"310.7561","TIME_SYSTEM":"UTC","TLE_LINE2":"2 45225  53.0531 138.9561 0001695  49.3575 310.7561 15.06403594113346","PERIAPSIS":"546.029","TLE_LINE1":"1 45225U 20012AZ  22056.73542097  .00004012  00000-0  28803-3 0  9996","REF_FRAME":"TEME","ECCENTRICITY":"0.00016950","OBJECT_NAME":"STARLINK-1215","NORAD_CAT_ID":"45225","LAUNCH_DATE":"2020-02-17","RA_OF_ASC_NODE":"138.9561","MEAN_MOTION_DDOT":"0.0000000000000","MEAN_MOTION_DOT":"0.00004012","INCLINATION":"53.0531","SEMIMAJOR_AXIS":"6925.338","RCS_SIZE":"LARGE","ELEMENT_SET_NO":"999","FILE":"3323947","APOAPSIS":"548.376","CENTER_NAME":"EARTH","EPOCH":"2022-02-25T17:39:00.371808","OBJECT_ID":"2020-012AZ","GP_ID":"197030379","COUNTRY_CODE":"US","EPHEMERIS_TYPE":"0","REV_AT_EPOCH":"11334","OBJECT_TYPE":"PAYLOAD","MEAN_ELEMENT_THEORY":"SGP4","BSTAR":"0.00028803000000","MEAN_MOTION":"15.06403594"},{"NORAD_CAT_ID":"45226","LAUNCH_DATE":"2020-02-17","RA_OF_ASC_NODE":"138.9305","REF_FRAME":"TEME","OBJECT_NAME":"STARLINK-1217","ECCENTRICITY":"0.00014660","ELEMENT_SET_NO":"999","APOAPSIS":"548.250","FILE":"3323947","MEAN_MOTION_DDOT":"0.0000000000000","SEMIMAJOR_AXIS":"6925.370","RCS_SIZE":"LARGE","INCLINATION":"53.0546","MEAN_MOTION_DOT":"-0.00000710","OBJECT_ID":"2020-012BA","EPOCH":"2022-02-25T17:49:36.625728","GP_ID":"197031134","CENTER_NAME":"EARTH","BSTAR":"-0.00002877500000","MEAN_ELEMENT_THEORY":"SGP4","OBJECT_TYPE":"PAYLOAD","MEAN_MOTION":"15.06392985","REV_AT_EPOCH":"11330","COUNTRY_CODE":"US","EPHEMERIS_TYPE":"0","CLASSIFICATION_TYPE":"U","SITE":"AFETR","PERIOD":"95.593","ARG_OF_PERICENTER":"60.1197","MEAN_ANOMALY":"299.9937","DECAY_DATE":null,"TIME_SYSTEM":"UTC","TLE_LINE1":"1 45226U 20012BA  22056.74278502 -.00000710  00000-0 -28775-4 0  9997","TLE_LINE2":"2 45226  53.0546 138.9305 0001466  60.1197 299.9937 15.06392985113308","PERIAPSIS":"546.220"},{"TLE_LINE1":"1 45227U 20012BB  22056.69855115  .00000070  00000-0  23567-4 0  9994","TLE_LINE2":"2 45227  53.0534 139.1286 0001506  55.2978 304.8153 15.06396850113305","PERIAPSIS":"546.180","TIME_SYSTEM":"UTC","ARG_OF_PERICENTER":"55.2978","MEAN_ANOMALY":"304.8153","DECAY_DATE":null,"SITE":"AFETR","CLASSIFICATION_TYPE":"U","PERIOD":"95.592","MEAN_ELEMENT_THEORY":"SGP4","OBJECT_TYPE":"PAYLOAD","BSTAR":"0.00002356700000","MEAN_MOTION":"15.06396850","COUNTRY_CODE":"US","EPHEMERIS_TYPE":"0","REV_AT_EPOCH":"11330","EPOCH":"2022-02-25T16:45:54.819360","OBJECT_ID":"2020-012BB","GP_ID":"197029383","CENTER_NAME":"EARTH","ELEMENT_SET_NO":"999","FILE":"3323947","APOAPSIS":"548.266","MEAN_MOTION_DDOT":"0.0000000000000","INCLINATION":"53.0534","MEAN_MOTION_DOT":"0.00000070","RCS_SIZE":"LARGE","SEMIMAJOR_AXIS":"6925.358","NORAD_CAT_ID":"45227","RA_OF_ASC_NODE":"139.1286","LAUNCH_DATE":"2020-02-17","REF_FRAME":"TEME","ECCENTRICITY":"0.00015060","OBJECT_NAME":"STARLINK-1221"},{"MEAN_MOTION_DDOT":"0.0000000000000","SEMIMAJOR_AXIS":"6925.353","RCS_SIZE":"LARGE","MEAN_MOTION_DOT":"0.00001686","INCLINATION":"53.0536","ELEMENT_SET_NO":"999","APOAPSIS":"548.272","FILE":"3323947","REF_FRAME":"TEME","ECCENTRICITY":"0.00015230","OBJECT_NAME":"STARLINK-1222","NORAD_CAT_ID":"45228","RA_OF_ASC_NODE":"139.4074","LAUNCH_DATE":"2020-02-17","REV_AT_EPOCH":"11326","COUNTRY_CODE":"US","EPHEMERIS_TYPE":"0","BSTAR":"0.00013206000000","MEAN_ELEMENT_THEORY":"SGP4","OBJECT_TYPE":"PAYLOAD","MEAN_MOTION":"15.06398630","CENTER_NAME":"EARTH","OBJECT_ID":"2020-012BC","EPOCH":"2022-02-25T15:15:41.225184","GP_ID":"197029633","DECAY_DATE":null,"ARG_OF_PERICENTER":"58.9864","MEAN_ANOMALY":"301.1275","PERIOD":"95.592","CLASSIFICATION_TYPE":"U","SITE":"AFETR","TLE_LINE2":"2 45228  53.0536 139.4074 0001523  58.9864 301.1275 15.06398630113267","PERIAPSIS":"546.163","TLE_LINE1":"1 45228U 20012BC  22056.63589381  .00001686  00000-0  13206-3 0  9990","TIME_SYSTEM":"UTC"},{"BSTAR":"0.00002714600000","MEAN_ELEMENT_THEORY":"SGP4","OBJECT_TYPE":"PAYLOAD","MEAN_MOTION":"15.06392649","REV_AT_EPOCH":"11326","COUNTRY_CODE":"US","EPHEMERIS_TYPE":"0","OBJECT_ID":"2020-012BD","EPOCH":"2022-02-25T14:22:36.752736","GP_ID":"197030879","CENTER_NAME":"EARTH","ELEMENT_SET_NO":"999","FILE":"3323947","APOAPSIS":"548.325","MEAN_MOTION_DDOT":"0.0000000000000","RCS_SIZE":"LARGE","SEMIMAJOR_AXIS":"6925.371","INCLINATION":"53.0558","MEAN_MOTION_DOT":"0.00000123","NORAD_CAT_ID":"45229","RA_OF_ASC_NODE":"139.5818","LAUNCH_DATE":"2020-02-17","REF_FRAME":"TEME","ECCENTRICITY":"0.00015730","OBJECT_NAME":"STARLINK-1226","TLE_LINE1":"1 45229U 20012BD  22056.59903649  .00000123  00000-0  27146-4 0  9997","TLE_LINE2":"2 45229  53.0558 139.5818 0001573  64.7003 295.4149 15.06392649113263","PERIAPSIS":"546.147","TIME_SYSTEM":"UTC","ARG_OF_PERICENTER":"64.7003","MEAN_ANOMALY":"295.4149","DECAY_DATE":null,"CLASSIFICATION_TYPE":"U","SITE":"AFETR","PERIOD":"95.593"},{"PERIAPSIS":"546.164","TLE_LINE2":"2 45230  53.0535 139.5908 0001543  65.0507 295.0642 15.06393741113381","TLE_LINE1":"1 45230U 20012BE  22056.59535169  .00000041  00000-0  21661-4 0  9992","TIME_SYSTEM":"UTC","DECAY_DATE":null,"MEAN_ANOMALY":"295.0642","ARG_OF_PERICENTER":"65.0507","PERIOD":"95.593","SITE":"AFETR","CLASSIFICATION_TYPE":"U","EPHEMERIS_TYPE":"0","COUNTRY_CODE":"US","REV_AT_EPOCH":"11338","MEAN_MOTION":"15.06393741","MEAN_ELEMENT_THEORY":"SGP4","OBJECT_TYPE":"PAYLOAD","BSTAR":"0.00002166100000","CENTER_NAME":"EARTH","GP_ID":"197030635","EPOCH":"2022-02-25T14:17:18.386016","OBJECT_ID":"2020-012BE","INCLINATION":"53.0535","MEAN_MOTION_DOT":"0.00000041","SEMIMAJOR_AXIS":"6925.368","RCS_SIZE":"LARGE","MEAN_MOTION_DDOT":"0.0000000000000","FILE":"3323947","APOAPSIS":"548.301","ELEMENT_SET_NO":"999","OBJECT_NAME":"STARLINK-1227","ECCENTRICITY":"0.00015430","REF_FRAME":"TEME","RA_OF_ASC_NODE":"139.5908","LAUNCH_DATE":"2020-02-17","NORAD_CAT_ID":"45230"},{"ELEMENT_SET_NO":"999","FILE":"3323947","APOAPSIS":"344.609","MEAN_MOTION_DDOT":"0.0000000000000","MEAN_MOTION_DOT":"0.00014865","INCLINATION":"53.0287","SEMIMAJOR_AXIS":"6717.871","RCS_SIZE":"LARGE","NORAD_CAT_ID":"45231","LAUNCH_DATE":"2020-02-17","RA_OF_ASC_NODE":"19.6308","REF_FRAME":"TEME","ECCENTRICITY":"0.00072530","OBJECT_NAME":"STARLINK-1229","MEAN_ELEMENT_THEORY":"SGP4","OBJECT_TYPE":"PAYLOAD","BSTAR":"0.00009458700000","MEAN_MOTION":"15.76722398","EPHEMERIS_TYPE":"0","COUNTRY_CODE":"US","REV_AT_EPOCH":"11494","EPOCH":"2022-02-25T21:36:39.197952","OBJECT_ID":"2020-012BF","GP_ID":"197029883","CENTER_NAME":"EARTH","ARG_OF_PERICENTER":"301.2617","MEAN_ANOMALY":"58.7692","DECAY_DATE":null,"SITE":"AFETR","CLASSIFICATION_TYPE":"U","PERIOD":"91.329","TLE_LINE1":"1 45231U 20012BF  22056.90045368  .00014865  00000-0  94587-4 0  9991","TLE_LINE2":"2 45231  53.0287  19.6308 0007253 301.2617  58.7692 15.76722398114942","PERIAPSIS":"334.864","TIME_SYSTEM":"UTC"},{"REF_FRAME":"TEME","OBJECT_NAME":"STARLINK-1235","ECCENTRICITY":"0.00014350","NORAD_CAT_ID":"45232","RA_OF_ASC_NODE":"139.5409","LAUNCH_DATE":"2020-02-17","MEAN_MOTION_DDOT":"0.0000000000000","INCLINATION":"53.0545","MEAN_MOTION_DOT":"0.00001455","RCS_SIZE":"LARGE","SEMIMAJOR_AXIS":"6925.372","ELEMENT_SET_NO":"999","APOAPSIS":"548.231","FILE":"3323947","CENTER_NAME":"EARTH","EPOCH":"2022-02-25T14:33:14.599872","OBJECT_ID":"2020-012BG","GP_ID":"197030133","EPHEMERIS_TYPE":"0","COUNTRY_CODE":"US","REV_AT_EPOCH":"11337","OBJECT_TYPE":"PAYLOAD","MEAN_ELEMENT_THEORY":"SGP4","BSTAR":"0.00011657000000","MEAN_MOTION":"15.06392354","PERIOD":"95.593","SITE":"AFETR","CLASSIFICATION_TYPE":"U","DECAY_DATE":null,"ARG_OF_PERICENTER":"55.7095","MEAN_ANOMALY":"304.4030","TIME_SYSTEM":"UTC","TLE_LINE2":"2 45232  53.0545 139.5409 0001435  55.7095 304.4030 15.06392354113372","PERIAPSIS":"546.243","TLE_LINE1":"1 45232U 20012BG  22056.60641898  .00001455  00000-0  11657-3 0  9996"},{"MEAN_MOTION":"15.06399329","OBJECT_TYPE":"PAYLOAD","MEAN_ELEMENT_THEORY":"SGP4","BSTAR":"0.00000629590000","COUNTRY_CODE":"US","EPHEMERIS_TYPE":"0","REV_AT_EPOCH":"11309","GP_ID":"197030380","EPOCH":"2022-02-25T17:15:06.681312","OBJECT_ID":"2020-012BH","CENTER_NAME":"EARTH","FILE":"3323947","APOAPSIS":"548.151","ELEMENT_SET_NO":"999","INCLINATION":"53.0558","MEAN_MOTION_DOT":"-0.00000188","SEMIMAJOR_AXIS":"6925.351","RCS_SIZE":"LARGE","MEAN_MOTION_DDOT":"0.0000000000000","RA_OF_ASC_NODE":"159.0462","LAUNCH_DATE":"2020-02-17","NORAD_CAT_ID":"45233","ECCENTRICITY":"0.00013510","OBJECT_NAME":"STARLINK-1238","REF_FRAME":"TEME","TLE_LINE1":"1 45233U 20012BH  22056.71882733 -.00000188  00000-0  62959-5 0  9990","PERIAPSIS":"546.280","TLE_LINE2":"2 45233  53.0558 159.0462 0001351  65.8358 294.2772 15.06399329113091","TIME_SYSTEM":"UTC","MEAN_ANOMALY":"294.2772","ARG_OF_PERICENTER":"65.8358","DECAY_DATE":null,"SITE":"AFETR","CLASSIFICATION_TYPE":"U","PERIOD":"95.592"}];
